{"type": "FeatureCollection", "features": [ {"type": "Feature", "properties": {"norad_id": 33917, "name": "COSMOS 2251 DEB", "group": "cosmos-2251-debris", "lat": 33.47757257634775, "lon": -92.43575647012494, "alt_km": 841.5216516084047, "timestamp": "2025-12-27T08:36:18.777682+00:00", "meta": {"OBJECT_NAME": "COSMOS 2251 DEB", "OBJECT_ID": "1993-036DW", "EPOCH": "2025-12-26T09:05:15.069696", "MEAN_MOTION": 13.69392685, "ECCENTRICITY": 0.0331107, "INCLINATION": 74.1073, "RA_OF_ASC_NODE": 100.0302, "ARG_OF_PERICENTER": 198.0199, "MEAN_ANOMALY": 160.8957, "EPHEMERIS_TYPE": 0, "CLASSIFICATION_TYPE": "U", "NORAD_CAT_ID": 33917, "ELEMENT_SET_NO": 999, "REV_AT_EPOCH": 83920, "BSTAR": 0.0012102, "MEAN_MOTION_DOT": 1.524e-05, "MEAN_MOTION_DDOT": 0}, "tle": {"line1": "1 33917U 93036DW  25360.37864664  .00001524  00000+0  12102-2 0  9993", "line2": "2 33917  74.1073 100.0302 0331107 198.0199 160.8957 13.69392685839205"}}, "geometry": {"type": "Point", "coordinates": [-92.43575647012494, 33.47757257634775]}}, {"type": "Feature", "properties": {"norad_id": 33920, "name": "COSMOS 2251 DEB", "group": "cosmos-2251-debris", "lat": -47.310613215518025, "lon": 108.69291221455416, "alt_km": 685.6927443754121, "timestamp": "2025-12-27T08:36:18.777692+00:00", "meta": {"OBJECT_NAME": "COSMOS 2251 DEB", "OBJECT_ID": "1993-036DZ", "EPOCH": "2025-12-27T04:15:33.346656", "MEAN_MOTION": 14.58497819, "ECCENTRICITY": 0.0037527, "INCLINATION": 74.0609, "RA_OF_ASC_NODE": 270.9888, "ARG_OF_PERICENTER": 275.3001, "MEAN_ANOMALY": 84.3883, "EPHEMERIS_TYPE": 0, "CLASSIFICATION_TYPE": "U", "NORAD_CAT_ID": 33920, "ELEMENT_SET_NO": 999, "REV_AT_EPOCH": 88325, "BSTAR": 0.0018965, "MEAN_MOTION_DOT": 8.876e-05, "MEAN_MOTION_DDOT": 0}, "tle": {"line1": "1 33920U 93036DZ  25361.17746929  .00008876  00000+0  18965-2 0  9999", "line2": "2 33920  74.0609 270.9888 0037527 275.3001  84.3883 14.58497819883255"}}, "geometry": {"type": "Point", "coordinates": [108.69291221455416, -47.310613215518025]}}, {"type": "Feature", "properties": {"norad_id": 33922, "name": "COSMOS 2251 DEB", "group": "cosmos-2251-debris", "lat": -73.71153949448633, "lon": 18.566922735504203, "alt_km": 721.0083688975537, "timestamp": "2025-12-27T08:36:18.777702+00:00", "meta": {"OBJECT_NAME": "COSMOS 2251 DEB", "OBJECT_ID": "1993-036EB", "EPOCH": "2025-12-26T10:09:19.550880", "MEAN_MOTION": 14.49558695, "ECCENTRICITY": 0.0023079, "INCLINATION": 74.0472, "RA_OF_ASC_NODE": 122.1065, "ARG_OF_PERICENTER": 231.2219, "MEAN_ANOMALY": 195.9664, "EPHEMERIS_TYPE": 0, "CLASSIFICATION_TYPE": "U", "NORAD_CAT_ID": 33922, "ELEMENT_SET_NO": 999, "REV_AT_EPOCH": 88776, "BSTAR": 0.00055696, "MEAN_MOTION_DOT": 2.117e-05, "MEAN_MOTION_DDOT": 0}, "tle": {"line1": "1 33922U 93036EB  25360.42314295  .00002117  00000+0  55696-3 0  9990", "line2": "2 33922  74.0472 122.1065 0023079 231.2219 195.9664 14.49558695887765"}}, "geometry": {"type": "Point", "coordinates": [18.566922735504203, -73.71153949448633]}}, {"type": "Feature", "properties": {"norad_id": 33924, "name": "COSMOS 2251 DEB", "group": "cosmos-2251-debris", "lat": 19.452636265056643, "lon": -107.44715722794737, "alt_km": 1115.6674631501846, "timestamp": "2025-12-27T08:36:18.777712+00:00", "meta": {"OBJECT_NAME": "COSMOS 2251 DEB", "OBJECT_ID": "1993-036ED", "EPOCH": "2025-12-27T03:10:15.369312", "MEAN_MOTION": 13.50241914, "ECCENTRICITY": 0.0403745, "INCLINATION": 73.9127, "RA_OF_ASC_NODE": 247.067, "ARG_OF_PERICENTER": 279.9747, "MEAN_ANOMALY": 75.603, "EPHEMERIS_TYPE": 0, "CLASSIFICATION_TYPE": "U", "NORAD_CAT_ID": 33924, "ELEMENT_SET_NO": 999, "REV_AT_EPOCH": 82933, "BSTAR": 0.00047828, "MEAN_MOTION_DOT": 4.82e-06, "MEAN_MOTION_DDOT": 0}, "tle": {"line1": "1 33924U 93036ED  25361.13212233  .00000482  00000+0  47828-3 0  9991", "line2": "2 33924  73.9127 247.0670 0403745 279.9747  75.6030 13.50241914829332"}}, "geometry": {"type": "Point", "coordinates": [-107.44715722794737, 19.452636265056643]}}, {"type": "Feature", "properties": {"norad_id": 33928, "name": "COSMOS 2251 DEB", "group": "cosmos-2251-debris", "lat": -0.4139388717942326, "lon": 24.9210530647325, "alt_km": 704.5138990587093, "timestamp": "2025-12-27T08:36:18.777722+00:00", "meta": {"OBJECT_NAME": "COSMOS 2251 DEB", "OBJECT_ID": "1993-036EH", "EPOCH": "2025-12-27T03:37:51.133728", "MEAN_MOTION": 14.4743258, "ECCENTRICITY": 0.0062123, "INCLINATION": 73.9252, "RA_OF_ASC_NODE": 25.4305, "ARG_OF_PERICENTER": 316.6577, "MEAN_ANOMALY": 42.9703, "EPHEMERIS_TYPE": 0, "CLASSIFICATION_TYPE": "U", "NORAD_CAT_ID": 33928, "ELEMENT_SET_NO": 999, "REV_AT_EPOCH": 88853, "BSTAR": 0.00031216, "MEAN_MOTION_DOT": 1.144e-05, "MEAN_MOTION_DDOT": 0}, "tle": {"line1": "1 33928U 93036EH  25361.15128627  .00001144  00000+0  31216-3 0  9990", "line2": "2 33928  73.9252  25.4305 0062123 316.6577  42.9703 14.47432580888538"}}, "geometry": {"type": "Point", "coordinates": [24.9210530647325, -0.4139388717942326]}}, {"type": "Feature", "properties": {"norad_id": 33932, "name": "COSMOS 2251 DEB", "group": "cosmos-2251-debris", "lat": 40.37282415565193, "lon": -56.957031525722215, "alt_km": 739.3800274718969, "timestamp": "2025-12-27T08:36:18.777732+00:00", "meta": {"OBJECT_NAME": "COSMOS 2251 DEB", "OBJECT_ID": "1993-036EM", "EPOCH": "2025-12-27T03:24:14.988096", "MEAN_MOTION": 14.38801073, "ECCENTRICITY": 0.0036057, "INCLINATION": 74.0343, "RA_OF_ASC_NODE": 289.3545, "ARG_OF_PERICENTER": 2.1743, "MEAN_ANOMALY": 357.9561, "EPHEMERIS_TYPE": 0, "CLASSIFICATION_TYPE": "U", "NORAD_CAT_ID": 33932, "ELEMENT_SET_NO": 999, "REV_AT_EPOCH": 88205, "BSTAR": 0.00055002, "MEAN_MOTION_DOT": 1.677e-05, "MEAN_MOTION_DDOT": 0}, "tle": {"line1": "1 33932U 93036EM  25361.14184014  .00001677  00000+0  55002-3 0  9996", "line2": "2 33932  74.0343 289.3545 0036057   2.1743 357.9561 14.38801073882051"}}, "geometry": {"type": "Point", "coordinates": [-56.957031525722215, 40.37282415565193]}}, {"type": "Feature", "properties": {"norad_id": 33933, "name": "COSMOS 2251 DEB", "group": "cosmos-2251-debris", "lat": -26.797257960064954, "lon": 25.208612740239435, "alt_km": 763.9114444007128, "timestamp": "2025-12-27T08:36:18.777742+00:00", "meta": {"OBJECT_NAME": "COSMOS 2251 DEB", "OBJECT_ID": "1993-036EN", "EPOCH": "2025-12-27T03:42:34.390080", "MEAN_MOTION": 14.33511622, "ECCENTRICITY": 0.0071094, "INCLINATION": 74.0887, "RA_OF_ASC_NODE": 33.864, "ARG_OF_PERICENTER": 38.0001, "MEAN_ANOMALY": 322.6135, "EPHEMERIS_TYPE": 0, "CLASSIFICATION_TYPE": "U", "NORAD_CAT_ID": 33933, "ELEMENT_SET_NO": 999, "REV_AT_EPOCH": 87991, "BSTAR": 0.00031926, "MEAN_MOTION_DOT": 8.83e-06, "MEAN_MOTION_DDOT": 0}, "tle": {"line1": "1 33933U 93036EN  25361.15456470  .00000883  00000+0  31926-3 0  9993", "line2": "2 33933  74.0887  33.8640 0071094  38.0001 322.6135 14.33511622879918"}}, "geometry": {"type": "Point", "coordinates": [25.208612740239435, -26.797257960064954]}}, {"type": "Feature", "properties": {"norad_id": 33934, "name": "COSMOS 2251 DEB", "group": "cosmos-2251-debris", "lat": -0.9253199613378569, "lon": 72.45191642316362, "alt_km": 708.5614527118323, "timestamp": "2025-12-27T08:36:18.777752+00:00", "meta": {"OBJECT_NAME": "COSMOS 2251 DEB", "OBJECT_ID": "1993-036EP", "EPOCH": "2025-12-27T03:40:24.504096", "MEAN_MOTION": 14.59225906, "ECCENTRICITY": 0.0014969, "INCLINATION": 74.0378, "RA_OF_ASC_NODE": 73.1082, "ARG_OF_PERICENTER": 196.4594, "MEAN_ANOMALY": 163.6088, "EPHEMERIS_TYPE": 0, "CLASSIFICATION_TYPE": "U", "NORAD_CAT_ID": 33934, "ELEMENT_SET_NO": 999, "REV_AT_EPOCH": 88949, "BSTAR": 0.00099331, "MEAN_MOTION_DOT": 4.668e-05, "MEAN_MOTION_DDOT": 0}, "tle": {"line1": "1 33934U 93036EP  25361.15306139  .00004668  00000+0  99331-3 0  9999", "line2": "2 33934  74.0378  73.1082 0014969 196.4594 163.6088 14.59225906889494"}}, "geometry": {"type": "Point", "coordinates": [72.45191642316362, -0.9253199613378569]}}, {"type": "Feature", "properties": {"norad_id": 33936, "name": "COSMOS 2251 DEB", "group": "cosmos-2251-debris", "lat": -12.183081023430622, "lon": 5.994566334669141, "alt_km": 714.7934727139418, "timestamp": "2025-12-27T08:36:18.777762+00:00", "meta": {"OBJECT_NAME": "COSMOS 2251 DEB", "OBJECT_ID": "1993-036ER", "EPOCH": "2025-12-27T00:26:34.390176", "MEAN_MOTION": 14.6035818, "ECCENTRICITY": 0.0026601, "INCLINATION": 74.0184, "RA_OF_ASC_NODE": 10.1917, "ARG_OF_PERICENTER": 162.0936, "MEAN_ANOMALY": 198.1174, "EPHEMERIS_TYPE": 0, "CLASSIFICATION_TYPE": "U", "NORAD_CAT_ID": 33936, "ELEMENT_SET_NO": 999, "REV_AT_EPOCH": 89098, "BSTAR": 0.00077161, "MEAN_MOTION_DOT": 3.722e-05, "MEAN_MOTION_DDOT": 0}, "tle": {"line1": "1 33936U 93036ER  25361.01845359  .00003722  00000+0  77161-3 0  9995", "line2": "2 33936  74.0184  10.1917 0026601 162.0936 198.1174 14.60358180890982"}}, "geometry": {"type": "Point", "coordinates": [5.994566334669141, -12.183081023430622]}}, {"type": "Feature", "properties": {"norad_id": 33938, "name": "COSMOS 2251 DEB", "group": "cosmos-2251-debris", "lat": -29.89167980015537, "lon": 9.347912109717202, "alt_km": 733.8315403766346, "timestamp": "2025-12-27T08:36:18.777772+00:00", "meta": {"OBJECT_NAME": "COSMOS 2251 DEB", "OBJECT_ID": "1993-036ET", "EPOCH": "2025-12-27T00:05:50.320032", "MEAN_MOTION": 14.46838787, "ECCENTRICITY": 0.0016796, "INCLINATION": 74.0436, "RA_OF_ASC_NODE": 180.5435, "ARG_OF_PERICENTER": 261.5611, "MEAN_ANOMALY": 264.018, "EPHEMERIS_TYPE": 0, "CLASSIFICATION_TYPE": "U", "NORAD_CAT_ID": 33938, "ELEMENT_SET_NO": 999, "REV_AT_EPOCH": 88606, "BSTAR": 0.00054419, "MEAN_MOTION_DOT": 1.949e-05, "MEAN_MOTION_DDOT": 0}, "tle": {"line1": "1 33938U 93036ET  25361.00405463  .00001949  00000+0  54419-3 0  9994", "line2": "2 33938  74.0436 180.5435 0016796 261.5611 264.0180 14.46838787886064"}}, "geometry": {"type": "Point", "coordinates": [9.347912109717202, -29.89167980015537]}}]}